NORAD_CAT_ID,OBJECT_NAME,OBJECT_TYPE,EPOCH,MEAN_MOTION,ECCENTRICITY,INCLINATION,RA_OF_ASC_NODE,ARG_OF_PERICENTER,MEAN_ANOMALY,BSTAR,MEAN_MOTION_DOT,MEAN_MOTION_DDOT,TLE_LINE0,TLE_LINE1,TLE_LINE2,SEMIMAJOR_AXIS,PERIOD,APOGEE,PERIGEE,DECAYED
55314.0,STARLINK-5305,PAYLOAD,2023-11-25 03:22:38,14.98331453,0.000252,69.9995,311.2273,258.6853,101.4023,3.6302e-06,-5e-07,0.0,0 STARLINK-5305,1 55314U 23010AX  23329.14072770 -.00000050  00000-0  36302-5 0  9996,2 55314  69.9995 311.2273 0002520 258.6853 101.4023 14.98331453 48297,6950.188,96.107,573.805,570.302,0.0
55314.0,STARLINK-5305,PAYLOAD,2023-11-25 08:11:03,14.98330559,0.0002408,70.0,310.7227,253.6225,106.4669,2.3558e-05,1.88e-06,0.0,0 STARLINK-5305,1 55314U 23010AX  23329.34100778  .00000188  00000-0  23558-4 0  9997,2 55314  70.0000 310.7227 0002408 253.6225 106.4669 14.98330559 49516,6950.191,96.107,573.73,570.383,0.0
55314.0,STARLINK-5305,PAYLOAD,2023-11-26 03:24:39,14.98324239,0.0002503,69.9998,308.7028,248.9959,111.0932,0.00020055,2.3e-05,0.0,0 STARLINK-5305,1 55314U 23010AX  23330.14212527  .00002300  00000-0  20055-3 0  9999,2 55314  69.9998 308.7028 0002503 248.9959 111.0932 14.98324239 48446,6950.211,96.107,573.815,570.336,0.0
55314.0,STARLINK-5305,PAYLOAD,2023-11-26 08:13:03,14.9833608,0.0002495,69.9998,308.197,270.1806,89.9067,0.00017868,2.04e-05,0.0,0 STARLINK-5305,1 55314U 23010AX  23330.34239944  .00002040  00000-0  17868-3 0  9992,2 55314  69.9998 308.1970 0002495 270.1806  89.9067 14.98336080 48476,6950.174,96.107,573.773,570.305,0.0
55314.0,STARLINK-5305,PAYLOAD,2023-11-26 22:38:17,14.98299123,0.0002274,70.0044,306.6866,247.536,112.5558,0.00021561,2.479e-05,0.0,0 STARLINK-5305,1 55314U 23010AX  23330.94325888  .00002479  00000-0  21561-3 0  9992,2 55314  70.0044 306.6866 0002274 247.5360 112.5558 14.98299123 49752,6950.288,96.109,573.734,570.573,0.0
55314.0,STARLINK-5305,PAYLOAD,2023-11-27 03:26:42,14.98313605,0.0002417,70.0007,306.1801,252.8103,107.2791,-0.00017431,-2.171e-05,0.0,0 STARLINK-5305,1 55314U 23010AX  23331.14354477 -.00002171  00000-0 -17431-3 0  9993,2 55314  70.0007 306.1801 0002417 252.8103 107.2791 14.98313605 48591,6950.244,96.108,573.788,570.429,0.0
55314.0,STARLINK-5305,PAYLOAD,2023-11-27 08:15:06,14.98314264,0.0002464,69.9997,305.6729,257.2752,102.8132,-0.00019098,-2.37e-05,0.0,0 STARLINK-5305,1 55314U 23010AX  23331.34382644 -.00002370  00000-0 -19098-3 0  9994,2 55314  69.9997 305.6729 0002464 257.2752 102.8132 14.98314264 49818,6950.242,96.108,573.819,570.394,0.0
55314.0,STARLINK-5305,PAYLOAD,2023-11-27 22:40:18,14.98325581,0.0002549,70.0015,304.1608,260.2313,99.8558,-6.7741e-05,-9.01e-06,0.0,0 STARLINK-5305,1 55314U 23010AX  23331.94465888 -.00000901  00000-0 -67741-4 0  9999,2 55314  70.0015 304.1608 0002549 260.2313  99.8558 14.98325581 49904,6950.207,96.107,573.843,570.3,0.0
55314.0,STARLINK-5305,PAYLOAD,2023-11-28 01:52:34,14.983293,0.0002722,70.0001,303.8211,268.3232,91.7615,-6.7783e-05,-9.02e-06,0.0,0 STARLINK-5305,1 55314U 23010AX  23332.07817682 -.00000902  00000-0 -67783-4 0  9994,2 55314  70.0001 303.8211 0002722 268.3232  91.7615 14.98329300 48735,6950.195,96.107,573.952,570.168,0.0
55314.0,STARLINK-5305,PAYLOAD,2023-11-28 08:17:06,14.98333364,0.0002253,70.0008,303.1486,257.8961,102.1946,1.3189e-05,6.4e-07,0.0,0 STARLINK-5305,1 55314U 23010AX  23332.34521226  .00000064  00000-0  13189-4 0  9998,2 55314  70.0008 303.1486 0002253 257.8961 102.1946 14.98333364 48773,6950.182,96.107,573.613,570.482,0.0
55314.0,STARLINK-5305,PAYLOAD,2023-11-28 22:42:18,14.98326488,0.0002673,69.9999,301.6335,265.8044,94.281,0.00021814,2.511e-05,0.0,0 STARLINK-5305,1 55314U 23010AX  23332.94604923  .00002511  00000-0  21814-3 0  9992,2 55314  69.9999 301.6335 0002673 265.8044  94.2810 14.98326488 50056,6950.204,96.107,573.927,570.211,0.0
55314.0,STARLINK-5305,PAYLOAD,2023-11-29 06:42:58,14.98330529,0.0002609,70.0004,300.7913,266.3342,93.7519,0.00025003,2.892e-05,0.0,0 STARLINK-5305,1 55314U 23010AX  23333.27984650  .00002892  00000-0  25003-3 0  9993,2 55314  70.0004 300.7913 0002609 266.3342  93.7519 14.98330529 50101,6950.191,96.107,573.87,570.243,0.0
55314.0,STARLINK-5305,PAYLOAD,2023-11-30 03:32:43,14.98338276,0.0002543,70.0018,298.6075,237.9343,122.1569,-7.4737e-05,-9.85e-06,0.0,0 STARLINK-5305,1 55314U 23010AX  23334.14772805 -.00000985  00000-0 -74737-4 0  9999,2 55314  70.0018 298.6075 0002543 237.9343 122.1569 14.98338276 49042,6950.167,96.106,573.8,570.265,0.0
55314.0,STARLINK-5305,PAYLOAD,2023-12-01 05:10:53,14.98309181,0.0002679,70.0008,295.9089,256.4986,103.5875,0.00025377,2.935e-05,0.0,0 STARLINK-5305,1 55314U 23010AX  23335.21589589  .00002935  00000-0  25377-3 0  9993,2 55314  70.0008 295.9089 0002679 256.4986 103.5875 14.98309181 49209,6950.257,96.108,573.984,570.26,0.0
55314.0,STARLINK-5305,PAYLOAD,2023-12-01 22:48:21,14.98334005,0.0002822,69.9998,294.058,260.0858,99.9982,5.1041e-05,5.16e-06,0.0,0 STARLINK-5305,1 55314U 23010AX  23335.95024316  .00000516  00000-0  51041-4 0  9997,2 55314  69.9998 294.0580 0002822 260.0858  99.9982 14.98334005 50504,6950.181,96.107,574.007,570.084,0.0
55314.0,STARLINK-5305,PAYLOAD,2023-12-02 00:24:28,14.9833307,0.0002824,69.9998,293.8882,266.1459,93.9377,9.3956e-05,1.028e-05,0.0,0 STARLINK-5305,1 55314U 23010AX  23336.01700176  .00001028  00000-0  93956-4 0  9990,2 55314  69.9998 293.8882 0002824 266.1459  93.9377 14.98333070 49323,6950.183,96.107,574.011,570.086,0.0
55314.0,STARLINK-5305,PAYLOAD,2023-12-02 06:49:00,14.98349431,0.0002172,70.0007,293.2165,272.044,88.047,0.00025367,2.937e-05,0.0,0 STARLINK-5305,1 55314U 23010AX  23336.28402778  .00002937  00000-0  25367-3 0  9996,2 55314  70.0007 293.2165 0002172 272.0440  88.0470 14.98349431 49368,6950.133,96.106,573.507,570.488,0.0
55314.0,STARLINK-5305,PAYLOAD,2023-12-02 22:50:22,14.98322095,0.0002679,70.0019,291.5347,239.0582,121.0314,-0.00016369,-2.045e-05,0.0,0 STARLINK-5305,1 55314U 23010AX  23336.95165483 -.00002045  00000-0 -16369-3 0  9993,2 55314  70.0019 291.5347 0002679 239.0582 121.0314 14.98322095 50652,6950.217,96.108,573.944,570.22,0.0
55314.0,STARLINK-5305,PAYLOAD,2023-12-03 03:38:48,14.9830079,0.0002409,70.0017,291.03,232.0114,128.0827,-0.00029782,-3.642e-05,0.0,0 STARLINK-5305,1 55314U 23010AX  23337.15195230 -.00003642  00000-0 -29782-3 0  9996,2 55314  70.0017 291.0300 0002409 232.0114 128.0827 14.98300790 49493,6950.283,96.109,573.823,570.474,0.0
55314.0,STARLINK-5305,PAYLOAD,2023-12-03 06:51:04,14.98311127,0.0002163,70.0009,290.6901,248.7199,111.3729,-0.00025386,-3.119e-05,0.0,0 STARLINK-5305,1 55314U 23010AX  23337.28546752 -.00003119  00000-0 -25386-3 0  9994,2 55314  70.0009 290.6901 0002163 248.7199 111.3729 14.98311127 49515,6950.251,96.108,573.62,570.613,0.0
55314.0,STARLINK-5305,PAYLOAD,2023-12-04 03:40:47,14.98325801,0.0002554,70.0018,288.5073,232.145,127.9478,-0.00025261,-3.105e-05,0.0,0 STARLINK-5305,1 55314U 23010AX  23338.15333109 -.00003105  00000-0 -25261-3 0  9998,2 55314  70.0018 288.5073 0002554 232.1450 127.9478 14.98325801 49644,6950.206,96.107,573.846,570.296,0.0
55314.0,STARLINK-5305,PAYLOAD,2023-12-04 06:53:03,14.98329938,0.0002872,69.9997,288.1675,261.186,98.8974,-0.00027023,-3.316e-05,0.0,0 STARLINK-5305,1 55314U 23010AX  23338.28684811 -.00003316  00000-0 -27023-3 0  9993,2 55314  69.9997 288.1675 0002872 261.1860  98.8974 14.98329938 50858,6950.193,96.107,574.054,570.062,0.0
55314.0,STARLINK-5305,PAYLOAD,2023-12-04 19:42:08,14.98310572,0.0002837,69.9994,286.8179,272.4584,87.625,0.00021641,2.489e-05,0.0,0 STARLINK-5305,1 55314U 23010AX  23338.82092852  .00002489  00000-0  21641-3 0  9999,2 55314  69.9994 286.8179 0002837 272.4584  87.6250 14.98310572 50934,6950.253,96.108,574.09,570.146,0.0
55314.0,STARLINK-5305,PAYLOAD,2023-12-05 03:42:48,14.98313363,0.0002145,70.0008,285.9781,256.967,103.1249,0.0002369,2.734e-05,0.0,0 STARLINK-5305,1 55314U 23010AX  23339.15472865  .00002734  00000-0  23690-3 0  9991,2 55314  70.0008 285.9781 0002145 256.9670 103.1249 14.98313363 49792,6950.244,96.108,573.6,570.619,0.0
55314.0,STARLINK-5305,PAYLOAD,2023-12-05 06:55:03,14.98333178,0.0002509,70.0004,285.6405,265.9224,94.1648,0.00036361,4.248e-05,0.0,0 STARLINK-5305,1 55314U 23010AX  23339.28823330  .00004248  00000-0  36361-3 0  9993,2 55314  70.0004 285.6405 0002509 265.9224  94.1648 14.98333178 49818,6950.183,96.107,573.792,570.304,0.0
55314.0,STARLINK-5305,PAYLOAD,2023-12-06 03:44:49,14.98338236,0.0002257,70.0005,283.4526,270.6103,89.4797,-0.00023129,-2.852e-05,0.0,0 STARLINK-5305,1 55314U 23010AX  23340.15612344 -.00002852  00000-0 -23129-3 0  9991,2 55314  70.0005 283.4526 0002257 270.6103  89.4797 14.98338236 49944,6950.167,96.106,573.601,570.464,0.0
55314.0,STARLINK-5305,PAYLOAD,2023-12-06 06:57:11,14.98252878,0.0001945,70.0008,283.1163,265.9265,94.1672,-0.0011564,-0.00013835,0.0,0 STARLINK-5305,1 55314U 23010AX  23340.28971707 -.00013835  00000-0 -11564-2 0  9998,2 55314  70.0008 283.1163 0001945 265.9265  94.1672 14.98252878 49964,6950.431,96.112,573.648,570.945,0.0
55314.0,STARLINK-5305,PAYLOAD,2023-12-06 22:58:26,14.98324547,0.0002502,70.0007,281.4319,276.7785,83.3089,-1.0187e-05,-2.14e-06,0.0,0 STARLINK-5305,1 55314U 23010AX  23340.95724823 -.00000214  00000-0 -10187-4 0  9996,2 55314  70.0007 281.4319 0002502 276.7785  83.3089 14.98324547 51254,6950.21,96.107,573.814,570.336,0.0
55314.0,STARLINK-5305,PAYLOAD,2023-12-07 05:22:58,14.9832672,0.0002433,70.0003,280.76,269.4142,90.6738,6.7046e-06,-1.3e-07,0.0,0 STARLINK-5305,1 55314U 23010AX  23341.22428690 -.00000013  00000-0  67046-5 0  9993,2 55314  70.0003 280.7600 0002433 269.4142  90.6738 14.98326720 50104,6950.203,96.107,573.759,570.377,0.0
55314.0,STARLINK-5305,PAYLOAD,2023-12-08 03:48:51,14.98322528,0.0002264,70.0007,278.4039,280.8885,79.2019,0.00010766,1.192e-05,0.0,0 STARLINK-5305,1 55314U 23010AX  23342.15892841  .00001192  00000-0  10766-3 0  9992,2 55314  70.0007 278.4039 0002264 280.8885  79.2019 14.98322528 51435,6950.216,96.107,573.655,570.507,0.0
